{
    "links": {
        "self": "http://www.neowsapp.com/rest/v1/neo/54051245?api_key=iIulBulltgU6a56xZRHN4H3l9WmuAYTsLGpBGhQ2"
    },
    "id": "54051245",
    "neo_reference_id": "54051245",
    "name": "(2020 QT1)",
    "designation": "2020 QT1",
    "nasa_jpl_url": "http://ssd.jpl.nasa.gov/sbdb.cgi?sstr=54051245",
    "absolute_magnitude_h": 23.986,
    "estimated_diameter": {
        "kilometers": {
            "estimated_diameter_min": 0.0423989378,
            "estimated_diameter_max": 0.0948069071
        },
        "meters": {
            "estimated_diameter_min": 42.3989378045,
            "estimated_diameter_max": 94.8069071047
        },
        "miles": {
            "estimated_diameter_min": 0.0263454704,
            "estimated_diameter_max": 0.0589102627
        },
        "feet": {
            "estimated_diameter_min": 139.1041311066,
            "estimated_diameter_max": 311.0462931055
        }
    },
    "is_potentially_hazardous_asteroid": false,
    "close_approach_data": [
        {
            "close_approach_date": "2020-08-22",
            "close_approach_date_full": "2020-Aug-22 23:40",
            "epoch_date_close_approach": 1598139600000,
            "relative_velocity": {
                "kilometers_per_second": "10.5713257108",
                "kilometers_per_hour": "38056.7725587655",
                "miles_per_hour": "23646.9984824174"
            },
            "miss_distance": {
                "astronomical": "0.1742186629",
                "lunar": "67.7710598681",
                "kilometers": "26062740.884088023",
                "miles": "16194636.2301117974"
            },
            "orbiting_body": "Earth"
        }
    ],
    "orbital_data": {
        "orbit_id": "1",
        "orbit_determination_date": "2020-08-19 14:42:10",
        "first_observation_date": "2020-08-18",
        "last_observation_date": "2020-08-19",
        "data_arc_in_days": 1,
        "observations_used": 14,
        "orbit_uncertainty": "9",
        "minimum_orbit_intersection": ".173284",
        "jupiter_tisserand_invariant": "3.722",
        "epoch_osculation": "2459080.5",
        "eccentricity": ".4009574986418618",
        "semi_major_axis": "1.959599962561148",
        "inclination": "18.42442343829159",
        "ascending_node_longitude": "155.9557596737358",
        "orbital_period": "1001.958100153103",
        "perihelion_distance": "1.173883663233944",
        "perihelion_argument": "162.4338017742701",
        "aphelion_distance": "2.745316261888352",
        "perihelion_time": "2459073.012621192320",
        "mean_anomaly": "2.690188711836278",
        "mean_motion": ".3592964615436422",
        "equinox": "J2000",
        "orbit_class": {
            "orbit_class_type": "AMO",
            "orbit_class_description": "Near-Earth asteroid orbits similar to that of 1221 Amor",
            "orbit_class_range": "1.017 AU < q (perihelion) < 1.3 AU"
        }
    },
    "is_sentry_object": false
}